CSS (TIANHE)            
1 48274U 21035A   24075.98060447  .00031105  00000+0  33230-3 0  9995
2 48274  41.4675 292.7727 0009543 184.5795 175.4959 15.63180491164504
